FLOCK 3P-9              
1 41973U 17008AB  17257.54766725  .00005060  00000-0  21818-3 0  9998
2 41973  97.4880 318.6132 0007143 230.7753 129.2850 15.22989782 32058
FLOCK 3P-10             
1 41974U 17008AC  17257.60367324  .00002634  00000-0  11481-3 0  9997
2 41974  97.4881 318.6942 0006973 232.4921 127.5683 15.23065129 31959
FLOCK 3P-11             
1 41975U 17008AD  17257.55028432  .00005157  00000-0  22194-3 0  9992
2 41975  97.4880 318.6097 0007210 231.8958 128.1629 15.23046399 31942
FLOCK 3P-60             
1 41976U 17008AE  17257.59193498  .00005448  00000-0  23455-3 0  9996
2 41976  97.4882 318.7109 0006801 233.8639 126.1968 15.23008479 31315
FLOCK 3P-58             
1 41977U 17008AF  17257.54383767  .00004924  00000-0  21267-3 0  9999
2 41977  97.4880 318.6161 0006909 232.5644 127.4964 15.22945025 32139
FLOCK 3P-57             
1 41978U 17008AG  17257.53847614  .00005206  00000-0  22440-3 0  9993
2 41978  97.4880 318.6243 0006993 231.3814 128.6796 15.22989289 31977
FLOCK 3P-75             
1 41979U 17008AH  17257.60256731  .00004310  00000-0  18624-3 0  9990
2 41979  97.4902 318.7573 0007160 235.0628 124.9937 15.23001832 32136
FLOCK 3P-70             
1 41980U 17008AJ  17257.73355849  .00001991  00000-0  87634-4 0  9996
2 41980  97.4901 318.8910 0007114 233.9815 126.0762 15.23028710 31993
FLOCK 3P-73             
1 41981U 17008AK  17257.54345924  .00003223  00000-0  14026-3 0  9993
2 41981  97.4903 318.6858 0007339 235.8919 124.1621 15.22953799 32100
FLOCK 3P-88             
1 41982U 17008AL  17257.73018981  .00001856  00000-0  81841-4 0  9995
2 41982  97.4899 318.8880 0007185 234.8233 125.2331 15.23043092 31105
FLOCK 3P-85             
1 41983U 17008AM  17257.52072019  .00002688  00000-0  11718-3 0  9994
2 41983  97.4902 318.7128 0007036 239.4489 120.6054 15.23043359 31976
FLOCK 3P-79             
1 41984U 17008AN  17257.52167174  .00002381  00000-0  10414-3 0  9994
2 41984  97.4902 318.7112 0006707 239.1136 120.9441 15.23050736 31970
FLOCK 3P-86             
1 41985U 17008AP  17257.52231655  .00005410  00000-0  23273-3 0  9994
2 41985  97.4900 318.7062 0006677 237.7997 122.2592 15.23036492 31962
FLOCK 3P-36             
1 41986U 17008AQ  17257.52507782  .00005308  00000-0  22810-3 0  9994
2 41986  97.4884 318.6504 0006452 234.3870 125.6766 15.23087004 31457
FLOCK 3P-30             
1 41987U 17008AR  17257.58152624  .00002716  00000-0  11834-3 0  9996
2 41987  97.4884 318.7297 0006369 235.9130 124.1502 15.23058967 31932
FLOCK 3P-34             
1 41988U 17008AS  17257.59352709  .00004569  00000-0  19699-3 0  9999
2 41988  97.4880 318.7031 0006609 231.2594 128.8053 15.23047200 31463
FLOCK 3P-35             
1 41989U 17008AT  17257.53024048  .00003331  00000-0  14451-3 0  9993
2 41989  97.4879 318.6336 0006744 232.0049 128.0579 15.23039110 31458
FLOCK 3P-33             
1 41990U 17008AU  17257.52513744  .00003003  00000-0  13061-3 0  9992
2 41990  97.4881 318.6444 0006357 232.8357 127.2300 15.23028895 31454
LEMUR-2-SATCHMO         
1 41991U 17008AV  17257.69512074  .00002464  00000-0  10953-3 0  9993
2 41991  97.4875 318.7202 0006552 236.5101 123.5510 15.22464209 31472
LEMUR-2-MIA-GRACE       
1 41992U 17008AW  17257.60643449  .00002908  00000-0  12759-3 0  9995
2 41992  97.4880 318.6910 0006495 236.9391 123.1222 15.22752420 31465
LEMUR-2-SMITA-SHARAD    
1 41993U 17008AX  17257.61693433  .00002199  00000-0  97644-4 0  9994
2 41993  97.4876 318.6728 0006477 236.6089 123.4528 15.22612248 31464
LEMUR-2-SPIRE-MINIONS   
1 41994U 17008AY  17257.61221475  .00003035  00000-0  13322-3 0  9998
2 41994  97.4877 318.6787 0006569 236.2305 123.8306 15.22712880 31461
LEMUR-2-RDEATON         
1 41995U 17008AZ  17257.54731940  .00002546  00000-0  11246-3 0  9993
2 41995  97.4877 318.6148 0007354 253.3254 106.7175 15.22643753 32130
LEMUR-2-NOGUECORREIG    
1 41996U 17008BA  17257.53523276  .00002886  00000-0  12654-3 0  9995
2 41996  97.4880 318.6334 0007276 254.1186 105.9249 15.22788724 31352
LEMUR-2-JOBANPUTRA      
1 41997U 17008BB  17257.52198247  .00003603  00000-0  15662-3 0  9991
2 41997  97.4881 318.6516 0007248 253.9407 106.1032 15.22912081 31446
LEMUR-2-TACHIKOMA       
1 41998U 17008BC  17257.61418286  .00002238  00000-0  99418-4 0  9995
2 41998  97.4877 318.6777 0007288 254.3493 105.6939 15.22570133 31386
BGUSAT                  
1 41999U 17008BD  17257.57842865  .00003641  00000-0  15754-3 0  9994
2 41999  97.4886 318.7393 0007163 254.6378 105.4067 15.23060699 31459
DIDO-2                  
1 42000U 17008BE  17257.55510988  .00001843  00000-0  82696-4 0  9996
2 42000  97.4874 318.6014 0007267 255.9947 104.0481 15.22455174 31450
FLOCK 3P-49             
1 42001U 17008BF  17257.51169338  .00004522  00000-0  19539-3 0  9994
2 42001  97.4882 318.6643 0006783 255.2756 104.7729 15.22981292 31975
FLOCK 3P-67             
1 42002U 17008BG  17257.58321542  .00004295  00000-0  18567-3 0  9996
2 42002  97.4881 318.7182 0006803 253.2939 106.7551 15.22995650 32146
FLOCK 3P-68             
1 42003U 17008BH  17257.51912216  .00003376  00000-0  14651-3 0  9993
2 42003  97.4879 318.6474 0006870 253.2580 106.7903 15.23016933 31771
FLOCK 3P-41             
1 42004U 17008BJ  17257.70416033  .00001981  00000-0  87136-4 0  9990
2 42004  97.4878 318.8541 0006581 256.0404 104.0101 15.23053656 31991
FLOCK 3P-45             
1 42005U 17008BK  17257.57872159  .00004273  00000-0  18449-3 0  9998
2 42005  97.4880 318.7231 0006685 255.1736 104.8760 15.23036316 32144
FLOCK 3P-48             
1 42006U 17008BL  17257.57625594  .00002506  00000-0  10946-3 0  9999
2 42006  97.4883 318.7302 0006501 256.5133 103.5380 15.23046709 31926
FLOCK 3P-43             
1 42007U 17008BM  17257.57424408  .00006018  00000-0  25859-3 0  9992
2 42007  97.4879 318.7251 0006390 256.1804 103.8722 15.23030675 32145
FLOCK 3P-42             
1 42008U 17008BN  17257.57332414  .00006245  00000-0  26827-3 0  9996
2 42008  97.4877 318.7224 0006473 255.9875 104.0642 15.23023232 32067
FLOCK 3P-61             
1 42009U 17008BP  17257.57180393  .00002519  00000-0  10998-3 0  9996
2 42009  97.4879 318.7279 0006371 258.6518 101.4002 15.23053690 32119
FLOCK 3P-40             
1 42010U 17008BQ  17257.56568421  .00005432  00000-0  23382-3 0  9997
2 42010  97.4874 318.7218 0006259 259.5906 100.4626 15.23021849 31374
FLOCK 3P-16             
1 42011U 17008BR  17257.61794331  .00002436  00000-0  10647-3 0  9996
2 42011  97.4874 318.8081 0005952 259.9202 100.1363 15.23051483 31323
FLOCK 3P-14             
1 42012U 17008BS  17257.55795846  .00003545  00000-0  15350-3 0  9990
2 42012  97.4878 318.7429 0006171 261.7280  98.3256 15.23058136 31932
FLOCK 3P-53             
1 42013U 17008BT  17257.56233967  .00005160  00000-0  22215-3 0  9996
2 42013  97.4870 318.7176 0005956 260.4815  99.5748 15.23040391 31937
FLOCK 3P-54             
1 42014U 17008BU  17257.55924851  .00002588  00000-0  11306-3 0  9995
2 42014  97.4876 318.7318 0005897 261.3355  98.7214 15.23014471 32148
PEASSS                  
1 42015U 17008BV  17257.73361429  .00002185  00000-0  95650-4 0  9990
2 42015  97.4866 318.9453 0005040 264.5685  95.4976 15.23117877 31974
AL-FARABI 1             
1 42016U 17008BW  17257.38984833  .00002530  00000-0  10963-3 0  9999
2 42016  97.4869 318.6454 0004946 266.5372  93.5299 15.23314594 32046
NAYIF-1 (EO-88)         
1 42017U 17008BX  17257.51917251  .00002703  00000-0  11685-3 0  9999
2 42017  97.4868 318.7777 0004921 266.4024  93.6650 15.23332580 32082
FLOCK 3P-23             
1 42018U 17008BY  17257.55724195  .00003535  00000-0  15326-3 0  9997
2 42018  97.4871 318.5764 0007562 229.7970 130.2605 15.23013277 30903
FLOCK 3P-76             
1 42019U 17008BZ  17257.59423412  .00003035  00000-0  13198-3 0  9990
2 42019  97.4904 318.7747 0007112 236.9921 123.0633 15.23024991 31975
FLOCK 3P-69             
1 42020U 17008CA  17257.52669879  .00002607  00000-0  11380-3 0  9999
2 42020  97.4904 318.7108 0007001 235.5026 124.5550 15.23027883 30859
FLOCK 3P-84             
1 42021U 17008CB  17257.53513860  .00004462  00000-0  19239-3 0  9991
2 42021  97.4900 318.6885 0007384 235.9109 124.1427 15.23052402 31975
FLOCK 3P-59             
1 42022U 17008CC  17257.60218264  .00003779  00000-0  16383-3 0  9997
2 42022  97.4881 318.6935 0006877 235.1940 124.8650 15.22971203 31008
FLOCK 3P-32             
1 42023U 17008CD  17257.60483333  .00002161  00000-0  94932-4 0  9990
2 42023  97.4881 318.6925 0006871 230.4134 129.6497 15.22998423 32146
FLOCK 3P-71             
1 42024U 17008CE  17257.54902552  .00004195  00000-0  18218-3 0  9994
2 42024  97.4907 318.6835 0007272 235.4685 124.5865 15.22844897 31000
FLOCK 3P-77             
1 42025U 17008CF  17257.52997241  .00003431  00000-0  14869-3 0  9992
2 42025  97.4902 318.6997 0007025 237.6403 122.4154 15.23048728 31977
FLOCK 3P-80             
1 42026U 17008CG  17257.71132058  .00002035  00000-0  89430-4 0  9997
2 42026  97.4900 318.9136 0006639 236.5464 123.5138 15.23061563 30143
FLOCK 3P-66             
1 42027U 17008CH  17257.51865639  .00005524  00000-0  23759-3 0  9991
2 42027  97.4882 318.6556 0006879 252.0626 107.9861 15.23035398 32086
FLOCK 3P-65             
1 42028U 17008CJ  17257.71356263  .00003556  00000-0  15410-3 0  9990
2 42028  97.4882 318.8543 0006748 251.8646 108.1855 15.23024664 32012
FLOCK 3P-50             
1 42029U 17008CK  17257.57932231  .00002720  00000-0  11855-3 0  9991
2 42029  97.4884 318.7324 0006559 255.2713 104.7797 15.23048557 31310
FLOCK 3P-52             
1 42030U 17008CL  17257.58085015  .00005519  00000-0  23751-3 0  9990
2 42030  97.4881 318.7214 0006636 253.9372 106.1134 15.23016650 32084
FLOCK 3P-46             
1 42031U 17008CM  17257.57541825  .00002691  00000-0  11733-3 0  9991
2 42031  97.4879 318.7236 0006563 255.3814 104.6694 15.23038981 32144
